ONEWEB-0558             
1 56059U 23043P   24265.33381438  .00000081  00000+0  16397-3 0  9996
2 56059  87.9365  10.1945 0002261 110.5269 249.6108 13.21823931 74509
ONEWEB-0559             
1 56060U 23043Q   24265.54984747 -.00002091  00000+0 -50947-2 0  9996
2 56060  87.9353  10.1472 0001695 118.4322 241.6983 13.21839197 74548
ONEWEB-0566             
1 56061U 23043R   24265.54356275  .00000118  00000+0  25514-3 0  9995
2 56061  87.9365  10.1495 0002409 113.0476 247.0912 13.21828284 75438
ONEWEB-0568             
1 56062U 23043S   24265.50028868  .00000065  00000+0  13608-3 0  9998
2 56062  87.9177 354.9660 0001849  91.5136 268.6207 13.16595888 75591
ONEWEB-0574             
1 56063U 23043T   24265.53725672  .00000123  00000+0  26676-3 0  9993
2 56063  87.9362  10.1434 0002035  98.4404 261.6960 13.21827431 75474
ONEWEB-0575             
1 56064U 23043U   24265.49395424  .00000172  00000+0  41578-3 0  9999
2 56064  87.9177 354.9768 0001447  92.9549 267.1747 13.16593482 75589
ONEWEB-0576             
1 56065U 23043V   24265.55094974  .00000115  00000+0  26701-3 0  9991
2 56065  87.9171 354.9609 0001710  89.9395 270.1931 13.16595955 76493
ONEWEB-0577             
1 56066U 23043W   24265.48128434 -.00001286  00000+0 -33974-2 0  9994
2 56066  87.9172 354.9741 0001316  90.1353 269.9929 13.16600549 75603
